ORBCOMM FM24 [-]        
1 25478U 98053D   23279.78391597  .00002749  00000+0  10109-2 0  9997
2 25478  45.0092 317.4976 0002208 287.0100  73.0505 14.34721456308676
ORBCOMM FM25 [-]        
1 25479U 98053E   23279.60838446  .00002513  00000+0  92871-3 0  9994
2 25479  45.0083 316.5578 0002938 346.2167  13.8599 14.34702422308662
ORBCOMM FM26 [-]        
1 25480U 98053F   23279.47162058  .00002161  00000+0  81231-3 0  9997
2 25480  45.0073 310.5207 0003981  30.1670 329.9406 14.34284139308694
ORBCOMM FM27 [+]        
1 25481U 98053G   23279.45372349  .00002644  00000+0  97522-3 0  9998
2 25481  45.0066 317.5422 0002450 248.0457 112.0129 14.34675299308612
ORBCOMM FM28 [-]        
1 25482U 98053H   23279.37192189  .00002506  00000+0  91777-3 0  9995
2 25482  45.0054 257.1720 0002506  39.5709 320.5321 14.35171034309222
ORBCOMM FM30 [-]        
1 25980U 99065A   23279.31480279  .00001976  00000+0  74525-3 0  9998
2 25980  45.0315 136.5722 0005845 142.6379 217.4875 14.34406766245369
ORBCOMM FM31 [-]        
1 25981U 99065B   23279.56123129  .00001767  00000+0  67142-3 0  9999
2 25981  45.0225 129.2824 0002978 165.5292 194.5641 14.34440104245926
ORBCOMM FM32 [+]        
1 25982U 99065C   23279.52458827  .00001778  00000+0  68923-3 0  9992
2 25982  45.0154 141.6611 0004910 170.9424 189.1512 14.33383539245604
